datetime_str,datetime_jd,Sun_solar_term,Zodiac_signs,Zodiac_degree,Sun_RA,Moon_RA,Mars_RA,Mercury_RA,Jupiter_RA,Venus_RA,Saturn_RA,Neptune_RA,Uranus_RA,Pluto_RA,Sun_DEC,Moon_DEC,Mars_DEC,Mercury_DEC,Jupiter_DEC,Venus_DEC,Saturn_DEC,Neptune_DEC,Uranus_DEC,Pluto_DEC,Sun_ObsEclLon,Moon_ObsEclLon,Mars_ObsEclLon,Mercury_ObsEclLon,Jupiter_ObsEclLon,Venus_ObsEclLon,Saturn_ObsEclLon,Neptune_ObsEclLon,Uranus_ObsEclLon,Pluto_ObsEclLon,Sun_ObsEclLat,Moon_ObsEclLat,Mars_ObsEclLat,Mercury_ObsEclLat,Jupiter_ObsEclLat,Venus_ObsEclLat,Saturn_ObsEclLat,Neptune_ObsEclLat,Uranus_ObsEclLat,Pluto_ObsEclLat,Sun_illumination,Moon_illumination,Mars_illumination,Mercury_illumination,Jupiter_illumination,Venus_illumination,Saturn_illumination,Neptune_illumination,Uranus_illumination,Pluto_illumination,Sun_AZ,Moon_AZ,Mars_AZ,Mercury_AZ,Jupiter_AZ,Venus_AZ,Saturn_AZ,Neptune_AZ,Uranus_AZ,Pluto_AZ,Sun_EL,Moon_EL,Mars_EL,Mercury_EL,Jupiter_EL,Venus_EL,Saturn_EL,Neptune_EL,Uranus_EL,Pluto_EL,targetname,e,q,incl,Omega,w,Tp_jd,n,M,nu,a,Q,P
1979-10-27 21:43:25,2444174.405150463,Second_october_霜降,Scorpio,3.8761102999999935,211.91138,298.05988,141.89202,234.90558,157.51119,228.42699,174.47189,228.16227,258.05407,204.72476,-12.90876,-17.15094,16.59124,-22.40525,10.34513,-17.89438,4.46081,-17.60693,-21.62494,7.57779,213.8761103,296.4858603,138.6837169,237.5590536,155.0855694,230.5513178,172.8700911,230.2321039,258.6144054,199.7217547,0.0010688,3.7211764,1.5291044,-2.795347,0.8632034,0.0753944,1.899856,0.2858702,1.3580846,16.6140514,100.0,43.70801,,66.40712,,95.98399,,,,,81.75471,121.686502,319.431794,102.583607,333.554877,95.348231,2.925626,94.909919,108.37912,49.171535,51.902839,-22.978535,40.165421,33.407965,53.511873,38.197911,62.720413,38.364692,12.615031,46.659176,Moon (301),0.04192357612752195,0.00243513045312264,5.107894676369201,156.94669041455,213.6100992279969,2444179.634280632,13.41184883017367,289.8676966613459,285.2726252639903,0.002541687064253197,0.002648243675383754,26.84193689911567
1979-10-27 14:35:57,2444174.108298611,Second_october_霜降,Scorpio,3.5793127000000027,211.62527,292.35257,141.7372,234.57028,157.46722,228.05515,174.4431,228.14412,258.04483,204.71419,-12.80775,-17.5472,16.63471,-22.31701,10.36134,-17.78375,4.47233,-17.60207,-21.62402,7.58129,213.5793127,291.0364665,138.5290859,237.236473,155.0392756,230.1805521,172.8390257,230.2140025,258.6056846,199.7101006,0.0017416,4.2555798,1.5239324,-2.78082,0.862325,0.0882483,1.8990135,0.2859232,1.3582513,16.6133008,100.0,39.29422,,66.95057,,96.01843,,,,,133.002731,232.336989,68.997744,165.291326,80.884015,155.024583,92.90515,155.029502,195.688539,104.07284,-41.1696,-29.380626,6.11901,-43.71932,-5.374425,-45.976427,-18.801432,-46.176883,-44.202653,-47.653452,Moon (301),0.04168734981345532,0.002436616968531007,5.107286326756422,156.9531262322176,212.9796488792337,2444179.593611116,13.40453345012513,286.4719450436482,281.8274242961631,0.002542611712426729,0.002648606456322451,26.85658559766132
1979-10-23 09:51:07,2444169.910497685,First_october_寒露,Libra,29.391763999999995,207.60669,234.487,139.48254,229.56961,156.82204,222.85353,174.02538,227.89044,257.91923,204.56402,-11.36069,-14.03889,17.24959,-20.87569,10.59706,-16.15805,4.63907,-17.53439,-21.61158,7.63276,209.391764,235.2443631,136.2865049,232.3704776,154.3619615,224.9495597,172.389898,229.9628256,258.4884268,199.5456886,0.0007946,5.2552775,1.4457016,-2.5213038,0.8490278,0.2614177,1.8872101,0.2867889,1.3609651,16.6049229,100.0,5.22113,,73.66927,,96.49482,,,,,230.738051,246.008268,94.624467,237.31347,129.958294,237.572321,190.905071,239.330869,248.995367,250.808326,-40.37142,-17.559411,-60.294542,-17.968288,-72.185428,-25.888121,-71.780799,-21.14101,5.779733,-54.132874,Moon (301),0.04076519411839413,0.00247298725878627,5.099708322014998,157.3872574563775,192.4318663347461,2444178.217233787,13.12883960428085,250.9421940865033,246.6033344806283,0.002578083326025078,0.002683179393263886,27.42054978587878
1979-10-22 05:58:49,2444168.7491782405,First_october_寒露,Libra,28.234915599999994,206.50375,219.86077,138.84699,228.11491,156.63814,221.4302,173.90735,227.82114,257.88584,204.52237,-10.95148,-10.6661,17.41855,-20.41303,10.66411,-15.68668,4.68632,-17.51584,-21.60821,7.64755,208.2349156,220.5257684,135.6568101,230.9342255,154.169099,223.5027251,172.2630368,229.8942722,258.4573306,199.499984,0.0001128,4.6323799,1.4241816,-2.4315197,0.8454007,0.3081117,1.8840666,0.2870441,1.3617551,16.6031,100.0,1.31343,,75.24902,,96.62197,,,,,261.853062,266.963665,263.659599,259.298067,262.299525,262.379519,263.537722,262.466741,265.473059,278.355384,8.798641,20.960419,-63.77198,31.496917,-45.2702,24.061194,-27.178843,30.45222,58.958695,-0.123622,Moon (301),0.04166770938474825,0.002478342200079652,5.105350456865432,157.5766548903989,186.879655693702,2444177.825807778,13.06784704061765,241.3879935642829,237.3018638323465,0.002586099022593249,0.002693855845106847,27.54853181867246
1979-10-20 01:41:10,2444166.5702546295,First_october_寒露,Libra,26.069115600000003,204.44758,194.39655,137.64441,225.32775,156.28795,218.77884,173.68368,227.69234,257.82482,204.44428,-10.17354,-2.67078,17.73406,-19.47539,10.79194,-14.77817,4.77622,-17.4812,-21.60192,7.67593,206.0691156,193.9974453,134.4679918,228.1555283,153.8019807,220.78938,172.0225742,229.7667366,258.4003859,199.4140438,0.0003078,3.2134042,1.3851746,-2.244493,0.8389567,0.3952224,1.8784626,0.2876075,1.36331,16.6002154,100.0,1.18778,,77.94922,,96.85534,,,,,299.528325,299.874039,287.516438,7.490521,288.890002,323.166583,292.378765,27.210297,94.350053,324.439317,66.765229,54.280511,-4.32059,86.691849,14.969413,80.155762,32.937208,84.099326,59.527745,53.584117,Moon (301),0.04583758889816506,0.002469123604948977,5.127611403596046,157.8797212013546,180.9349690553777,2444177.349796311,13.05542385433944,219.2685143884909,216.0869163608818,0.002587739336846979,0.002706355068744982,27.57474625232799
1979-10-18 03:35:27,2444164.6496180557,First_october_寒露,Libra,24.1600282,202.64341,172.12187,136.57235,222.81661,155.97328,216.45852,173.48381,227.57994,257.77268,204.37539,-9.4776,4.74525,18.00918,-18.57858,10.90657,-13.95307,4.85671,-17.45089,-21.59647,7.70158,204.1600282,170.604295,133.4113554,225.6224843,153.4722127,218.3960655,171.8075691,229.6553825,258.3517714,199.3379285,1.31e-05,1.2353868,1.3508668,-2.0641024,0.8332761,0.4700157,1.8735993,0.2880546,1.3646592,16.5982016,100.0,8.3816,,80.08023,,97.05444,,,,,277.652256,278.639733,278.698129,273.502622,278.131902,278.687608,279.297327,278.89663,80.323166,297.937987,41.408741,7.844369,-29.338882,62.825096,-9.282115,55.636271,9.040618,66.896374,84.142759,34.712886,Moon (301),0.05245169294473963,0.00243993508398742,5.153369396528803,158.0179784359292,179.1367016276685,2444177.099152996,13.15244213978171,196.2582120407553,194.675526126928,0.002574998093311062,0.002710061102634703,27.3713426125724
1979-10-17 23:29:26,2444164.4787731483,First_october_寒露,Libra,23.9925054,202.4857,170.73272,136.47655,222.59337,155.94519,216.25443,173.46607,227.57013,257.7682,204.36934,-9.4154,5.44109,18.034,-18.49577,10.91693,-13.87867,4.86394,-17.4482,-21.59597,7.70389,203.9925054,169.0582044,133.3170202,225.3957095,153.4428152,218.184566,171.7885174,229.6456362,258.3475302,199.3312488,0.0007315,1.3306957,1.3483372,-2.0467981,0.832925,0.4770451,1.8732714,0.2881541,1.3648242,16.598079,100.0,9.06248,,80.26114,,97.07228,,,,,44.192728,324.192317,303.518962,88.177993,311.845296,75.019878,327.932601,88.463242,103.335469,26.655197,71.967179,56.14327,23.772039,59.127192,42.684777,63.457128,58.045502,54.281295,27.700698,56.361662,Moon (301),0.05313634777335937,0.002436693966092088,5.155612692167598,158.0236500525845,179.0347582424666,2444177.078136016,13.16441164062568,194.1368007947265,192.739967279254,0.00257343701002987,0.002710180053967651,27.34645571922346
1979-10-17 05:43:03,2444163.7382291667,First_october_寒露,Libra,23.25472719999999,201.79051,161.86304,136.05992,221.61092,155.82212,215.36315,173.38816,227.52703,257.74851,204.34271,-9.14426,7.96708,18.13875,-18.13117,10.96159,-13.55404,4.89529,-17.43659,-21.59391,7.71395,203.2547272,159.957254,132.9073263,224.3962951,153.3138407,217.2602049,171.7046369,229.6029231,258.3292174,199.3017213,-6.36e-05,0.2593158,1.3347523,-1.9739594,0.8306198,0.5049279,1.8713407,0.2882641,1.3653013,16.5974233,100.0,13.67246,,81.02098,,97.14685,,,,,265.095019,265.634528,268.16699,262.613033,266.433979,265.577628,267.244314,265.296303,267.975205,281.870338,11.958395,-31.336607,-58.349675,33.065673,-37.971791,25.965408,-19.570451,38.307444,67.010513,7.752677,Moon (301),0.05617394867776308,0.00242213580752749,5.164841556696925,158.0370886747833,178.616597006773,2444176.985864009,13.21940698021205,184.8741234970906,184.3630408082226,0.002566294715148242,0.002710453622768993,27.23268907136902
1979-10-12 10:25:22,2444158.9342824076,First_october_寒露,Libra,18.49532959999999,197.332,105.10627,133.31459,215.14699,155.00589,209.65096,172.876,227.25354,257.6278,204.17115,-7.36014,18.75646,18.81132,-15.56051,11.25811,-11.38034,5.10267,-17.36227,-21.58074,7.78123,198.4953296,104.0368252,130.2183583,217.7141821,152.4593649,211.2766242,171.1533319,229.3315776,258.2164186,199.1107441,0.0004584,-3.9371046,1.2518529,-1.4607463,0.8172617,0.6821864,1.8601969,0.2895307,1.3688812,16.5954561,100.0,54.01054,,85.37846,,97.61304,,,,,226.804539,81.056512,89.97623,234.51629,129.353552,234.315933,194.680223,240.390942,249.708036,252.475116,-48.784928,-31.113954,-57.061001,-30.42555,-72.951638,-37.207875,-72.008776,-19.943361,7.464991,-52.571151,Moon (301),0.06899158345417944,0.002364157712459797,5.189882324115832,157.9687312029973,178.2114339698926,2444149.940268079,13.43035557626644,120.7928104922659,127.2826992512718,0.002539351600312244,0.00271454548816469,26.80494927745449
